OBJECT_NAME,OBJECT_ID,EPOCH,MEAN_MOTION,ECCENTRICITY,INCLINATION,RA_OF_ASC_NODE,ARG_OF_PERICENTER,MEAN_ANOMALY,EPHEMERIS_TYPE,CLASSIFICATION_TYPE,NORAD_CAT_ID,ELEMENT_SET_NO,REV_AT_EPOCH,BSTAR,MEAN_MOTION_DOT,MEAN_MOTION_DDOT
SKYSAT-C1,2016-040C,2026-06-06T15:56:12.399360,15.36120752,.00042161,96.9565,189.9555,78.4382,281.7336,0,U,41601,999,55625,.300151E-3,.10493E-3,0
LAPAN-A3,2016-040E,2026-06-07T06:28:47.579232,15.33041998,.00118634,97.1490,154.7423,57.7705,302.4686,0,U,41603,999,55329,.12013305E-3,.3766E-4,0
GAOFEN-3,2016-049A,2026-06-07T07:14:24.358848,14.42213938,.00011888,98.4014,166.2373,98.2745,261.8579,0,U,41727,999,51722,-.8631169E-5,-.72E-6,0
SKYSAT-C4,2016-058B,2026-06-07T07:34:11.683200,15.48278698,.00008614,96.9182,180.5027,88.9365,271.1986,0,U,41771,999,54394,.32284722E-3,.16963E-3,0
SKYSAT-C5,2016-058C,2026-06-06T08:14:36.225312,15.34314115,.00023413,97.0475,198.4688,11.6429,348.4869,0,U,41772,999,54208,.30222151E-3,.9969E-4,0
SKYSAT-C2,2016-058D,2026-06-07T07:55:48.323424,15.41846048,.00051904,97.0172,180.7981,91.5623,268.6219,0,U,41773,999,54353,.30551218E-3,.12887E-3,0
SKYSAT-C3,2016-058E,2026-06-06T19:54:16.734240,15.52094114,.00020173,96.9015,189.0787,81.0888,279.0595,0,U,41774,999,54450,.41227435E-3,.24837E-3,0
ALSAT-1B,2016-059C,2026-06-07T05:59:20.556672,14.72266389,.00077116,97.7754,167.4425,258.1131,101.9212,0,U,41785,999,51911,.38369005E-4,.195E-5,0
PATHFINDER 1,2016-059E,2026-06-07T06:01:13.596384,14.67652251,.00271555,97.8166,157.9756,236.4180,123.4433,0,U,41787,999,51825,.13099462E-3,.702E-5,0
SCATSAT 1,2016-059H,2026-06-06T22:24:06.017472,14.79504470,.00532728,98.1195,221.5937,281.3951,78.1278,0,U,41790,999,10007,.15625617E-3,.1138E-4,0
GOKTURK 1A,2016-073A,2026-06-07T06:12:34.454304,14.62767454,.00014579,98.1257,53.0884,77.1178,283.0187,0,U,41875,999,50737,.85794723E-4,.391E-5,0
RESOURCESAT-2A,2016-074A,2026-06-07T06:54:14.889312,14.21612848,.00033313,98.7521,231.8729,101.8940,258.2611,0,U,41877,999,49289,.4399469E-5,-.35E-6,0
CARTOSAT-2D,2017-008A,2026-06-07T05:07:00.765120,15.19255456,.0003674,97.4121,217.7045,275.5836,84.4979,0,U,41948,999,51606,-.9931E-4,-.2158E-4,0
SENTINEL-2B,2017-013A,2026-06-07T06:39:28.109088,14.30814227,.00012112,98.5687,233.1914,85.7310,274.4011,0,U,42063,999,48322,.52655553E-4,.94E-6,0
CARTOSAT-2E,2017-036C,2026-06-07T05:32:20.318208,15.19247949,.00032413,97.4277,218.1973,1.8587,358.2659,0,U,42767,999,49663,.28501547E-3,.594E-4,0
FORMOSAT-5,2017-049A,2026-06-06T23:37:18.441408,14.50895068,.00126407,98.2253,233.5205,112.4850,247.7685,0,U,42920,999,46519,.57696136E-4,.184E-5,0
SENTINEL-5P,2017-064A,2026-06-06T13:24:13.419360,14.19517174,.0000975,98.7922,99.7656,81.2482,278.8805,0,U,42969,999,44805,.50983E-4,.63E-6,0
SKYSAT-C11,2017-068A,2026-06-07T03:56:08.720448,15.57375419,.00010673,97.4344,306.5637,88.3614,271.7763,0,U,42987,999,48168,.37703798E-3,.27537E-3,0
SKYSAT-C10,2017-068B,2026-06-05T21:08:33.596160,15.34442038,.0001298,97.4497,293.6207,89.3365,270.8026,0,U,42988,999,48062,.38541E-3,.12783E-3,0
SKYSAT-C9,2017-068C,2026-06-07T02:41:13.178112,15.41312358,.00089172,97.4414,295.7027,165.5731,194.5772,0,U,42989,999,48120,.36081244E-3,.14976E-3,0
SKYSAT-C8,2017-068D,2026-06-07T02:33:24.712992,15.36778300,.00015916,97.4513,294.6195,99.6385,260.5039,0,U,42990,999,48076,.3321468E-3,.11859E-3,0
SKYSAT-C7,2017-068E,2026-06-06T15:27:21.917952,15.36715247,.0006904,97.4524,295.1398,137.5981,222.5798,0,U,42991,999,48075,.37973E-3,.13554E-3,0
SKYSAT-C6,2017-068F,2026-06-07T02:26:50.607168,15.34035159,.00038243,97.4559,295.6102,164.8599,195.2759,0,U,42992,999,48077,.3102435E-3,.10141E-3,0
CARTOSAT-2F,2018-004A,2026-06-07T06:18:13.322016,15.19299337,.00001432,97.4785,217.9944,28.1107,332.0135,0,U,43111,999,46582,.25370195E-3,.5287E-4,0
GAOFEN-1 02,2018-031A,2026-06-07T06:26:34.424736,14.76468187,.00043889,98.0525,220.8228,55.4854,304.6770,0,U,43259,999,44123,.14379112E-3,.949E-5,0
GAOFEN-1 03,2018-031B,2026-06-07T05:55:07.923072,14.76455452,.00038247,98.0526,220.6605,98.7691,261.3951,0,U,43260,999,44122,.13471017E-3,.886E-5,0
GAOFEN-1 04,2018-031D,2026-06-07T06:57:46.487232,14.76466849,.00022205,98.0526,220.8934,92.1332,268.0132,0,U,43262,999,44122,.1712324E-3,.114E-4,0
SENTINEL-3B,2018-039A,2026-06-06T22:49:04.204704,14.26738808,.00008941,98.6250,225.6295,77.0075,283.1205,0,U,43437,999,42266,.62742231E-4,.108E-5,0
GAOFEN-5 01,2018-043A,2026-06-07T04:43:37.935840,14.60598790,.00029938,98.4565,129.5738,101.3657,258.7879,0,U,43461,999,43023,.96567378E-4,.42E-5,0
GAOFEN-6,2018-048A,2026-06-07T05:53:15.900288,14.76620821,.00112349,97.7757,221.2941,201.1963,158.8783,0,U,43484,999,43192,.7869734E-4,.501E-5,0
